SINOD-D 1               
1 40968U 15058E   26068.70671034  .00006216  00000+0  50695-3 0  9998
2 40968  64.7759 210.2419 0117281  93.1753 268.2787 14.95054547101785
PHI 1                   
1 66775U 25276DP  26068.73555710  .00008281  00000+0  38774-3 0  9998
2 66775  97.4203 144.0831 0002962 121.0034 239.1492 15.19973113 15331
